{
  "type": "FeatureCollection",
  "features": [
    {
      "type": "Feature",
      "properties": {
        "norad_id": 66549,
        "name": "SHIJIAN-28 (SJ-28)",
        "group": "last-30-days",
        "lat": 1.5385712527167505,
        "lon": -67.02231615013454,
        "alt_km": 35789.17381891403,
        "timestamp": "2025-12-21T05:44:50.288822+00:00",
        "meta_object_name": "SHIJIAN-28 (SJ-28)",
        "meta_object_id": "2025-277A",
        "meta_epoch": "2025-12-20T20:34:34.195008",
        "meta_mean_motion": 1.00267811,
        "meta_eccentricity": 0.00010356,
        "meta_inclination": 4.9987,
        "meta_ra_of_asc_node": 274.8297,
        "meta_arg_of_pericenter": 136.7623,
        "meta_mean_anomaly": 103.5438,
        "meta_ephemeris_type": 0,
        "meta_classification_type": "U",
        "meta_norad_cat_id": 66549,
        "meta_element_set_no": 999,
        "meta_rev_at_epoch": 36,
        "meta_bstar": 0,
        "meta_mean_motion_dot": -3.32e-06,
        "meta_mean_motion_ddot": 0,
        "tle_line1": "1 66549U 25277A   25354.85734022 -.00000332  00000+0  00000+0 0  9990",
        "tle_line2": "2 66549   4.9987 274.8297 0001035 136.7623 103.5438  1.00267811   364"
      },
      "geometry": {
        "type": "Point",
        "coordinates": [
          -67.02231615013454,
          1.5385712527167505
        ]
      }
    },
    {
      "type": "Feature",
      "properties": {
        "norad_id": 66550,
        "name": "CZ-7A R/B",
        "group": "last-30-days",
        "lat": 12.829479063431894,
        "lon": -31.914767574085477,
        "alt_km": 14234.827072300566,
        "timestamp": "2025-12-21T05:44:50.288868+00:00",
        "meta_object_name": "CZ-7A R/B",
        "meta_object_id": "2025-277B",
        "meta_epoch": "2025-12-18T08:54:45.891072",
        "meta_mean_motion": 2.8884184,
        "meta_eccentricity": 0.6879086,
        "meta_inclination": 14.3533,
        "meta_ra_of_asc_node": 266.9093,
        "meta_arg_of_pericenter": 194.6822,
        "meta_mean_anomaly": 125.1782,
        "meta_ephemeris_type": 0,
        "meta_classification_type": "U",
        "meta_norad_cat_id": 66550,
        "meta_element_set_no": 999,
        "meta_rev_at_epoch": 50,
        "meta_bstar": 0.0030391,
        "meta_mean_motion_dot": 0.0266328,
        "meta_mean_motion_ddot": 1.4058e-06,
        "tle_line1": "1 66550U 25277B   25352.37136448  .02663280  14058-5  30391-2 0  9996",
        "tle_line2": "2 66550  14.3533 266.9093 6879086 194.6822 125.1782  2.88841840   508"
      },
      "geometry": {
        "type": "Point",
        "coordinates": [
          -31.914767574085477,
          12.829479063431894
        ]
      }
    },
    {
      "type": "Feature",
      "properties": {
        "norad_id": 66554,
        "name": "GLOBAL-33",
        "group": "last-30-days",
        "lat": -3.1346039782269277,
        "lon": -168.59139886391583,
        "alt_km": 468.8269707693107,
        "timestamp": "2025-12-21T05:44:50.288899+00:00",
        "meta_object_name": "GLOBAL-33",
        "meta_object_id": "2025-267A",
        "meta_epoch": "2025-12-20T10:09:54.490176",
        "meta_mean_motion": 15.3162198,
        "meta_eccentricity": 0.00038385,
        "meta_inclination": 42.0214,
        "meta_ra_of_asc_node": 12.634,
        "meta_arg_of_pericenter": 144.4876,
        "meta_mean_anomaly": 215.6217,
        "meta_ephemeris_type": 0,
        "meta_classification_type": "U",
        "meta_norad_cat_id": 66554,
        "meta_element_set_no": 999,
        "meta_rev_at_epoch": 458,
        "meta_bstar": 0.00030721953,
        "meta_mean_motion_dot": 9.345e-05,
        "meta_mean_motion_ddot": 0,
        "tle_line1": "1 66554U 25267A   25354.42354734  .00009345  00000+0  30722-3 0  9996",
        "tle_line2": "2 66554  42.0214  12.6340 0003838 144.4876 215.6217 15.31621980  4580"
      },
      "geometry": {
        "type": "Point",
        "coordinates": [
          -168.59139886391583,
          -3.1346039782269277
        ]
      }
    },
    {
      "type": "Feature",
      "properties": {
        "norad_id": 66557,
        "name": "STARLINK-35699",
        "group": "last-30-days",
        "lat": 42.59065742492179,
        "lon": 152.0399803893527,
        "alt_km": 406.1636015004706,
        "timestamp": "2025-12-21T05:44:50.288913+00:00",
        "meta_object_name": "STARLINK-35699",
        "meta_object_id": "2025-268A",
        "meta_epoch": "2025-12-19T13:12:05.651424",
        "meta_mean_motion": 15.50689057,
        "meta_eccentricity": 0.0002216,
        "meta_inclination": 43.0009,
        "meta_ra_of_asc_node": 81.3713,
        "meta_arg_of_pericenter": 38.1148,
        "meta_mean_anomaly": 321.9869,
        "meta_ephemeris_type": 0,
        "meta_classification_type": "U",
        "meta_norad_cat_id": 66557,
        "meta_element_set_no": 999,
        "meta_rev_at_epoch": 568,
        "meta_bstar": 0.00095065,
        "meta_mean_motion_dot": 0.00056051,
        "meta_mean_motion_ddot": 0,
        "tle_line1": "1 66557U 25268A   25353.55006541  .00056051  00000+0  95065-3 0  9990",
        "tle_line2": "2 66557  43.0009  81.3713 0002216  38.1148 321.9869 15.50689057  5689"
      },
      "geometry": {
        "type": "Point",
        "coordinates": [
          152.0399803893527,
          42.59065742492179
        ]
      }
    },
    {
      "type": "Feature",
      "properties": {
        "norad_id": 66558,
        "name": "STARLINK-35695",
        "group": "last-30-days",
        "lat": 40.385503394312366,
        "lon": -174.47510740115257,
        "alt_km": 391.8294588573044,
        "timestamp": "2025-12-21T05:44:50.288924+00:00",
        "meta_object_name": "STARLINK-35695",
        "meta_object_id": "2025-268B",
        "meta_epoch": "2025-12-20T22:00:01.999584",
        "meta_mean_motion": 15.56331919,
        "meta_eccentricity": 4.497e-05,
        "meta_inclination": 43.0009,
        "meta_ra_of_asc_node": 73.3274,
        "meta_arg_of_pericenter": 230.3955,
        "meta_mean_anomaly": 227.0143,
        "meta_ephemeris_type": 0,
        "meta_classification_type": "U",
        "meta_norad_cat_id": 66558,
        "meta_element_set_no": 999,
        "meta_rev_at_epoch": 598,
        "meta_bstar": 0.0013860215,
        "meta_mean_motion_dot": 0.00101167,
        "meta_mean_motion_ddot": 0,
        "tle_line1": "1 66558U 25268B   25354.91668981  .00101167  00000+0  13860-2 0  9995",
        "tle_line2": "2 66558  43.0009  73.3274 0000449 230.3955 227.0143 15.56331919  5982"
      },
      "geometry": {
        "type": "Point",
        "coordinates": [
          -174.47510740115257,
          40.385503394312366
        ]
      }
    },
    {
      "type": "Feature",
      "properties": {
        "norad_id": 66559,
        "name": "STARLINK-35419",
        "group": "last-30-days",
        "lat": 39.79830359898466,
        "lon": -171.96029718363098,
        "alt_km": 392.82213611734915,
        "timestamp": "2025-12-21T05:44:50.288936+00:00",
        "meta_object_name": "STARLINK-35419",
        "meta_object_id": "2025-268C",
        "meta_epoch": "2025-12-20T22:00:01.999584",
        "meta_mean_motion": 15.56458471,
        "meta_eccentricity": 0.00016324,
        "meta_inclination": 43.0012,
        "meta_ra_of_asc_node": 73.327,
        "meta_arg_of_pericenter": 266.3479,
        "meta_mean_anomaly": 193.0067,
        "meta_ephemeris_type": 0,
        "meta_classification_type": "U",
        "meta_norad_cat_id": 66559,
        "meta_element_set_no": 999,
        "meta_rev_at_epoch": 598,
        "meta_bstar": -0.0015608592,
        "meta_mean_motion_dot": -0.00112216,
        "meta_mean_motion_ddot": 0,
        "tle_line1": "1 66559U 25268C   25354.91668981 -.00112216  00000+0 -15609-2 0  9998",
        "tle_line2": "2 66559  43.0012  73.3270 0001632 266.3479 193.0067 15.56458471  5988"
      },
      "geometry": {
        "type": "Point",
        "coordinates": [
          -171.96029718363098,
          39.79830359898466
        ]
      }
    },
    {
      "type": "Feature",
      "properties": {
        "norad_id": 66560,
        "name": "STARLINK-35411",
        "group": "last-30-days",
        "lat": 39.18740550315606,
        "lon": -169.60464464657286,
        "alt_km": 392.88929090422334,
        "timestamp": "2025-12-21T05:44:50.288948+00:00",
        "meta_object_name": "STARLINK-35411",
        "meta_object_id": "2025-268D",
        "meta_epoch": "2025-12-20T22:00:01.999584",
        "meta_mean_motion": 15.56452957,
        "meta_eccentricity": 0.000161,
        "meta_inclination": 43.0012,
        "meta_ra_of_asc_node": 73.322,
        "meta_arg_of_pericenter": 265.168,
        "meta_mean_anomaly": 196.1113,
        "meta_ephemeris_type": 0,
        "meta_classification_type": "U",
        "meta_norad_cat_id": 66560,
        "meta_element_set_no": 999,
        "meta_rev_at_epoch": 598,
        "meta_bstar": -0.0015113037,
        "meta_mean_motion_dot": -0.0010869,
        "meta_mean_motion_ddot": 0,
        "tle_line1": "1 66560U 25268D   25354.91668981 -.00108690  00000+0 -15113-2 0  9991",
        "tle_line2": "2 66560  43.0012  73.3220 0001610 265.1680 196.1113 15.56452957  5981"
      },
      "geometry": {
        "type": "Point",
        "coordinates": [
          -169.60464464657286,
          39.18740550315606
        ]
      }
    }
  ]
}